<!DOCTYPE html>
<html lang="en"><head><meta charset="UTF-8"/><meta name="viewport" content="width=device-width, initial-scale=1.0"/><title>Parsing TLEs · SatelliteToolboxTle.jl</title><meta name="title" content="Parsing TLEs · SatelliteToolboxTle.jl"/><meta property="og:title" content="Parsing TLEs · SatelliteToolboxTle.jl"/><meta property="twitter:title" content="Parsing TLEs · SatelliteToolboxTle.jl"/><meta name="description" content="Documentation for SatelliteToolboxTle.jl."/><meta property="og:description" content="Documentation for SatelliteToolboxTle.jl."/><meta property="twitter:description" content="Documentation for SatelliteToolboxTle.jl."/><meta property="og:url" content="https://juliaspace.github.io/SatelliteToolboxTle.jl/stable/man/parsing_tles/"/><meta property="twitter:url" content="https://juliaspace.github.io/SatelliteToolboxTle.jl/stable/man/parsing_tles/"/><link rel="canonical" href="https://juliaspace.github.io/SatelliteToolboxTle.jl/stable/man/parsing_tles/"/><script data-outdated-warner src="../../assets/warner.js"></script><link href="https://cdnjs.cloudflare.com/ajax/libs/lato-font/3.0.0/css/lato-font.min.css" rel="stylesheet" type="text/css"/><link href="https://cdnjs.cloudflare.com/ajax/libs/juliamono/0.050/juliamono.min.css" rel="stylesheet" type="text/css"/><link href="https://cdnjs.cloudflare.com/ajax/libs/font-awesome/6.4.2/css/fontawesome.min.css" rel="stylesheet" type="text/css"/><link href="https://cdnjs.cloudflare.com/ajax/libs/font-awesome/6.4.2/css/solid.min.css" rel="stylesheet" type="text/css"/><link href="https://cdnjs.cloudflare.com/ajax/libs/font-awesome/6.4.2/css/brands.min.css" rel="stylesheet" type="text/css"/><link href="https://cdnjs.cloudflare.com/ajax/libs/KaTeX/0.16.8/katex.min.css" rel="stylesheet" type="text/css"/><script>documenterBaseURL="../.."</script><script src="https://cdnjs.cloudflare.com/ajax/libs/require.js/2.3.6/require.min.js" data-main="../../assets/documenter.js"></script><script src="../../search_index.js"></script><script src="../../siteinfo.js"></script><script src="../../../versions.js"></script><link class="docs-theme-link" rel="stylesheet" type="text/css" href="../../assets/themes/documenter-dark.css" data-theme-name="documenter-dark" data-theme-primary-dark/><link class="docs-theme-link" rel="stylesheet" type="text/css" href="../../assets/themes/documenter-light.css" data-theme-name="documenter-light" data-theme-primary/><script src="../../assets/themeswap.js"></script></head><body><div id="documenter"><nav class="docs-sidebar"><a class="docs-logo" href="../../"><img src="../../assets/logo.png" alt="SatelliteToolboxTle.jl logo"/></a><div class="docs-package-name"><span class="docs-autofit"><a href="../../">SatelliteToolboxTle.jl</a></span></div><button class="docs-search-query input is-rounded is-small is-clickable my-2 mx-auto py-1 px-2" id="documenter-search-query">Search docs (Ctrl + /)</button><ul class="docs-menu"><li><a class="tocitem" href="../../">Home</a></li><li><span class="tocitem">Usage</span><ul><li><a class="tocitem" href="../tle_structure/">The TLE structure</a></li><li><a class="tocitem" href="../creating_tles/">Creating TLEs</a></li><li class="is-active"><a class="tocitem" href>Parsing TLEs</a><ul class="internal"><li><a class="tocitem" href="#Parsing-TLEs-from-strings"><span>Parsing TLEs from strings</span></a></li><li><a class="tocitem" href="#Parsing-TLEs-from-files"><span>Parsing TLEs from files</span></a></li></ul></li><li><a class="tocitem" href="../fetching_tles/">Fetching TLEs</a></li><li><a class="tocitem" href="../auxiliary_functions/">Auxiliary functions</a></li></ul></li><li><a class="tocitem" href="../../lib/library/">Library</a></li></ul><div class="docs-version-selector field has-addons"><div class="control"><span class="docs-label button is-static is-size-7">Version</span></div><div class="docs-selector control is-expanded"><div class="select is-fullwidth is-size-7"><select id="documenter-version-selector"></select></div></div></div></nav><div class="docs-main"><header class="docs-navbar"><a class="docs-sidebar-button docs-navbar-link fa-solid fa-bars is-hidden-desktop" id="documenter-sidebar-button" href="#"></a><nav class="breadcrumb"><ul class="is-hidden-mobile"><li><a class="is-disabled">Usage</a></li><li class="is-active"><a href>Parsing TLEs</a></li></ul><ul class="is-hidden-tablet"><li class="is-active"><a href>Parsing TLEs</a></li></ul></nav><div class="docs-right"><a class="docs-navbar-link" href="https://github.com/JuliaSpace/SatelliteToolboxTle.jl" title="View the repository on GitHub"><span class="docs-icon fa-brands"></span><span class="docs-label is-hidden-touch">GitHub</span></a><a class="docs-navbar-link" href="https://github.com/JuliaSpace/SatelliteToolboxTle.jl/blob/main/docs/src/man/parsing_tles.md" title="Edit source on GitHub"><span class="docs-icon fa-solid"></span></a><a class="docs-settings-button docs-navbar-link fa-solid fa-gear" id="documenter-settings-button" href="#" title="Settings"></a><a class="docs-article-toggle-button fa-solid fa-chevron-up" id="documenter-article-toggle-button" href="javascript:;" title="Collapse all docstrings"></a></div></header><article class="content" id="documenter-page"><h1 id="Parsing-TLEs"><a class="docs-heading-anchor" href="#Parsing-TLEs">Parsing TLEs</a><a id="Parsing-TLEs-1"></a><a class="docs-heading-anchor-permalink" href="#Parsing-TLEs" title="Permalink"></a></h1><p>This package contains functions to parse TLEs from strings and files.</p><h2 id="Parsing-TLEs-from-strings"><a class="docs-heading-anchor" href="#Parsing-TLEs-from-strings">Parsing TLEs from strings</a><a id="Parsing-TLEs-from-strings-1"></a><a class="docs-heading-anchor-permalink" href="#Parsing-TLEs-from-strings" title="Permalink"></a></h2><p>The simplest way to parse one single TLE is using the macro <a href="../../lib/library/#SatelliteToolboxTle.@tle_str-Tuple{Any}"><code>@tle_str</code></a>:</p><pre><code class="language-julia-repl hljs" style="display:block;">julia&gt; tle = tle&quot;&quot;&quot;
           AMAZONIA 1
           1 47699U 21015A   23083.68657856 -.00000044  10000-8  43000-4 0  9990
           2 47699  98.4304 162.1097 0001247 136.2017 223.9283 14.40814394108652
           &quot;&quot;&quot;</code><code class="nohighlight hljs ansi" style="display:block;">TLE:
<span class="sgr1">                      Name : </span>AMAZONIA 1
<span class="sgr1">          Satellite number : </span>47699
<span class="sgr1">  International designator : </span>21015A
<span class="sgr1">        Epoch (Year / Day) : </span>23 /  83.68657856 (2023-03-24T16:28:40.388)
<span class="sgr1">        Element set number : </span>999
<span class="sgr1">              Eccentricity : </span>  0.00012470
<span class="sgr1">               Inclination : </span> 98.43040000 deg
<span class="sgr1">                      RAAN : </span>162.10970000 deg
<span class="sgr1">       Argument of perigee : </span>136.20170000 deg
<span class="sgr1">              Mean anomaly : </span>223.92830000 deg
<span class="sgr1">           Mean motion (n) : </span> 14.40814394 revs / day
<span class="sgr1">         Revolution number : </span>10865
<span class="sgr1">                        B* : </span>     4.3e-05 1 / er
<span class="sgr1">                     ṅ / 2 : </span>    -4.4e-07 rev / day²
<span class="sgr1">                     n̈ / 6 : </span>       1e-09 rev / day³</code></pre><p>This macro considers only one TLE, leading to an error if the string contains additional information:</p><pre><code class="language-julia-repl hljs" style="display:block;">julia&gt; tle = tle&quot;&quot;&quot;
           AMAZONIA 1
           1 47699U 21015A   23083.68657856 -.00000044  10000-8  43000-4 0  9990
           2 47699  98.4304 162.1097 0001247 136.2017 223.9283 14.40814394108652
           CBERS 4A
           1 44883U 19093E   23087.54098578  .00002943  00000+0  38100-3 0  9997
           2 44883  97.8669 167.4611 0001705  77.3129 282.8275 14.81612352176856
           &quot;&quot;&quot;</code><code class="nohighlight hljs ansi" style="display:block;">ERROR: LoadError: ArgumentError: The string `str` must contain only one TLE (2 or 3 lines).
in expression starting at REPL[1]:1</code></pre><p>Multiple TLEs can be parsed using the macro <a href="../../lib/library/#SatelliteToolboxTle.@tles_str-Tuple{Any}"><code>@tles_str</code></a>:</p><pre><code class="language-julia-repl hljs" style="display:block;">julia&gt; tles = tles&quot;&quot;&quot;
           AMAZONIA 1
           1 47699U 21015A   23083.68657856 -.00000044  10000-8  43000-4 0  9990
           2 47699  98.4304 162.1097 0001247 136.2017 223.9283 14.40814394108652
           CBERS 4A
           1 44883U 19093E   23087.54098578  .00002943  00000+0  38100-3 0  9997
           2 44883  97.8669 167.4611 0001705  77.3129 282.8275 14.81612352176856
           &quot;&quot;&quot;</code><code class="nohighlight hljs ansi" style="display:block;">2-element Vector{TLE}:
 TLE: AMAZONIA 1 (Epoch = 2023-03-24T16:28:40.388)
